QIANFAN-33              
1 61566U 24185Q   25303.84227249  .00000620  00000+0  43919-3 0  9991
2 61566  88.9767  83.5842 0008851  99.0101 261.2078 13.96495009 63172
QIANFAN-34              
1 61567U 24185R   25303.84078245  .00000610  00000+0  38934-3 0  9992
2 61567  88.9747  83.2053 0007285 103.8108 256.3884 14.02248195 63342
QIANFAN-35              
1 61568U 24185S   25303.81023384  .00001144  00000+0  45692-3 0  9996
2 61568  88.9772  81.9121 0008546  73.8957 286.3178 14.27855519 64050
QIANFAN-36              
1 61569U 24185T   25303.78227802  .00000095  00000+0  11943-3 0  9990
2 61569  88.9750  85.5141 0006817 153.6836 206.4665 13.55568422 62103
QIANFAN-37              
1 62238U 24232B   25303.73890014  .00000185  00000+0  26744-3 0  9998
2 62238  89.0033  45.6606 0001666 128.8592 231.2707 13.50976314 93369
QIANFAN-38              
1 62239U 24232C   25303.76345544  .00000202  00000+0  29377-3 0  9990
2 62239  89.0040  45.5711 0013026 323.9110  36.1161 13.50984781 93421
QIANFAN-39              
1 62240U 24232D   25303.81054183  .00000883  00000+0  36893-3 0  9990
2 62240  89.0035  42.2089 0015260 212.1752 147.8511 14.25317958 95275
QIANFAN-40              
1 62241U 24232E   25303.72228529  .00000184  00000+0  26581-3 0  9995
2 62241  89.0068  45.1478 0012244 333.2595  26.7924 13.50984313 93784
